[{"OBJECT_NAME":"SZ-21 MODULE","OBJECT_ID":"2025-246C","EPOCH":"2026-03-08T17:40:24.022560","MEAN_MOTION":15.68463397,"ECCENTRICITY":0.00013651,"INCLINATION":41.4736,"RA_OF_ASC_NODE":209.2286,"ARG_OF_PERICENTER":296.9264,"MEAN_ANOMALY":63.1439,"EPHEMERIS_TYPE":0,"CLASSIFICATION_TYPE":"U","NORAD_CAT_ID":66515,"ELEMENT_SET_NO":999,"REV_AT_EPOCH":1792,"BSTAR":0.0004111263,"MEAN_MOTION_DOT":0.00047754,"MEAN_MOTION_DDOT":0},{"OBJECT_NAME":"SHENZHOU-22","OBJECT_ID":"2025-272A","EPOCH":"2026-03-10T06:59:45.583584","MEAN_MOTION":15.60691261,"ECCENTRICITY":0.00069786,"INCLINATION":41.4662,"RA_OF_ASC_NODE":204.4993,"ARG_OF_PERICENTER":276.4011,"MEAN_ANOMALY":83.6033,"EPHEMERIS_TYPE":0,"CLASSIFICATION_TYPE":"U","NORAD_CAT_ID":66645,"ELEMENT_SET_NO":999,"REV_AT_EPOCH":26752,"BSTAR":0.00032677228,"MEAN_MOTION_DOT":0.00027696,"MEAN_MOTION_DDOT":0},{"OBJECT_NAME":"SOYUZ-MS 28","OBJECT_ID":"2025-275A","EPOCH":"2026-03-10T03:48:27.801504","MEAN_MOTION":15.485572,"ECCENTRICITY":0.00079716,"INCLINATION":51.6324,"RA_OF_ASC_NODE":70.0375,"ARG_OF_PERICENTER":176.2903,"MEAN_ANOMALY":183.8146,"EPHEMERIS_TYPE":0,"CLASSIFICATION_TYPE":"U","NORAD_CAT_ID":66664,"ELEMENT_SET_NO":999,"REV_AT_EPOCH":55452,"BSTAR":0.00017625562,"MEAN_MOTION_DOT":9.13e-5,"MEAN_MOTION_DDOT":0},{"OBJECT_NAME":"DUPLEX","OBJECT_ID":"1998-067XS","EPOCH":"2026-03-10T05:28:45.722208","MEAN_MOTION":15.56252991,"ECCENTRICITY":0.00025122,"INCLINATION":51.6295,"RA_OF_ASC_NODE":66.7564,"ARG_OF_PERICENTER":114.8422,"MEAN_ANOMALY":245.2831,"EPHEMERIS_TYPE":0,"CLASSIFICATION_TYPE":"U","NORAD_CAT_ID":66906,"ELEMENT_SET_NO":999,"REV_AT_EPOCH":1521,"BSTAR":0.000562624,"MEAN_MOTION_DOT":0.00039985,"MEAN_MOTION_DDOT":0},{"OBJECT_NAME":"ISS OBJECT XT","OBJECT_ID":"1998-067XT","EPOCH":"2026-03-10T05:16:15.621600","MEAN_MOTION":15.69436118,"ECCENTRICITY":0.00047254,"INCLINATION":51.6253,"RA_OF_ASC_NODE":62.933,"ARG_OF_PERICENTER":80.8513,"MEAN_ANOMALY":279.3019,"EPHEMERIS_TYPE":0,"CLASSIFICATION_TYPE":"U","NORAD_CAT_ID":66907,"ELEMENT_SET_NO":999,"REV_AT_EPOCH":1526,"BSTAR":0.001551912,"MEAN_MOTION_DOT":0.00189996,"MEAN_MOTION_DDOT":0},{"OBJECT_NAME":"ISS OBJECT XU","OBJECT_ID":"1998-067XU","EPOCH":"2026-03-10T05:13:36.305184","MEAN_MOTION":15.69558818,"ECCENTRICITY":0.00048674,"INCLINATION":51.6259,"RA_OF_ASC_NODE":62.9179,"ARG_OF_PERICENTER":83.082,"MEAN_ANOMALY":277.0731,"EPHEMERIS_TYPE":0,"CLASSIFICATION_TYPE":"U","NORAD_CAT_ID":66908,"ELEMENT_SET_NO":999,"REV_AT_EPOCH":1526,"BSTAR":0.0015554428,"MEAN_MOTION_DOT":0.0019144,"MEAN_MOTION_DDOT":0},{"OBJECT_NAME":"SILVERSAT","OBJECT_ID":"1998-067XV","EPOCH":"2026-03-10T05:13:58.057248","MEAN_MOTION":15.72479555,"ECCENTRICITY":0.00054753,"INCLINATION":51.6252,"RA_OF_ASC_NODE":62.1676,"ARG_OF_PERICENTER":80.1195,"MEAN_ANOMALY":280.0421,"EPHEMERIS_TYPE":0,"CLASSIFICATION_TYPE":"U","NORAD_CAT_ID":66909,"ELEMENT_SET_NO":999,"REV_AT_EPOCH":1527,"BSTAR":0.0017775765,"MEAN_MOTION_DOT":0.00249186,"MEAN_MOTION_DDOT":0},{"OBJECT_NAME":"ISS OBJECT XW","OBJECT_ID":"1998-067XW","EPOCH":"2026-03-10T00:33:59.903136","MEAN_MOTION":15.68689366,"ECCENTRICITY":0.00051754,"INCLINATION":51.625,"RA_OF_ASC_NODE":63.8675,"ARG_OF_PERICENTER":86.7803,"MEAN_ANOMALY":273.3786,"EPHEMERIS_TYPE":0,"CLASSIFICATION_TYPE":"U","NORAD_CAT_ID":66910,"ELEMENT_SET_NO":999,"REV_AT_EPOCH":1523,"BSTAR":0.0012762542,"MEAN_MOTION_DOT":0.00150696,"MEAN_MOTION_DDOT":0},{"OBJECT_NAME":"ISS OBJECT XX","OBJECT_ID":"1998-067XX","EPOCH":"2026-03-10T03:36:51.107328","MEAN_MOTION":15.75641063,"ECCENTRICITY":0.00068779,"INCLINATION":51.6208,"RA_OF_ASC_NODE":61.6978,"ARG_OF_PERICENTER":85.5905,"MEAN_ANOMALY":274.588,"EPHEMERIS_TYPE":0,"CLASSIFICATION_TYPE":"U","NORAD_CAT_ID":66911,"ELEMENT_SET_NO":999,"REV_AT_EPOCH":1526,"BSTAR":0.0019565547,"MEAN_MOTION_DOT":0.00317119,"MEAN_MOTION_DDOT":0},{"OBJECT_NAME":"ISS OBJECT XY","OBJECT_ID":"1998-067XY","EPOCH":"2026-03-10T05:17:47.850144","MEAN_MOTION":15.63798105,"ECCENTRICITY":0.00032179,"INCLINATION":51.6272,"RA_OF_ASC_NODE":64.4503,"ARG_OF_PERICENTER":91.272,"MEAN_ANOMALY":268.8644,"EPHEMERIS_TYPE":0,"CLASSIFICATION_TYPE":"U","NORAD_CAT_ID":66912,"ELEMENT_SET_NO":999,"REV_AT_EPOCH":1523,"BSTAR":0.0011636874,"MEAN_MOTION_DOT":0.0011218,"MEAN_MOTION_DDOT":0},{"OBJECT_NAME":"KNACKSAT-2","OBJECT_ID":"1998-067XZ","EPOCH":"2026-03-10T05:49:37.518240","MEAN_MOTION":15.5187734,"ECCENTRICITY":0.00093782,"INCLINATION":51.6312,"RA_OF_ASC_NODE":69.1011,"ARG_OF_PERICENTER":187.665,"MEAN_ANOMALY":172.4198,"EPHEMERIS_TYPE":0,"CLASSIFICATION_TYPE":"U","NORAD_CAT_ID":67683,"ELEMENT_SET_NO":999,"REV_AT_EPOCH":487,"BSTAR":0.00074646297,"MEAN_MOTION_DOT":0.00045414,"MEAN_MOTION_DDOT":0},{"OBJECT_NAME":"GXIBA-1","OBJECT_ID":"1998-067YA","EPOCH":"2026-03-09T07:32:56.030496","MEAN_MOTION":15.54259962,"ECCENTRICITY":0.00110131,"INCLINATION":51.63,"RA_OF_ASC_NODE":73.4032,"ARG_OF_PERICENTER":174.4815,"MEAN_ANOMALY":185.6299,"EPHEMERIS_TYPE":0,"CLASSIFICATION_TYPE":"U","NORAD_CAT_ID":67684,"ELEMENT_SET_NO":999,"REV_AT_EPOCH":473,"BSTAR":0.0011905476,"MEAN_MOTION_DOT":0.00079693,"MEAN_MOTION_DDOT":0},{"OBJECT_NAME":"CORAL","OBJECT_ID":"1998-067YB","EPOCH":"2026-03-10T07:15:45.775296","MEAN_MOTION":15.52253363,"ECCENTRICITY":0.00113765,"INCLINATION":51.6311,"RA_OF_ASC_NODE":68.7514,"ARG_OF_PERICENTER":184.514,"MEAN_ANOMALY":175.5749,"EPHEMERIS_TYPE":0,"CLASSIFICATION_TYPE":"U","NORAD_CAT_ID":67685,"ELEMENT_SET_NO":999,"REV_AT_EPOCH":488,"BSTAR":0.00085674009,"MEAN_MOTION_DOT":0.00053003,"MEAN_MOTION_DDOT":0},{"OBJECT_NAME":"ISS OBJECT YC","OBJECT_ID":"1998-067YC","EPOCH":"2026-03-10T05:34:49.865376","MEAN_MOTION":15.5279489,"ECCENTRICITY":0.00079627,"INCLINATION":51.631,"RA_OF_ASC_NODE":69.0348,"ARG_OF_PERICENTER":152.0771,"MEAN_ANOMALY":208.0648,"EPHEMERIS_TYPE":0,"CLASSIFICATION_TYPE":"U","NORAD_CAT_ID":67686,"ELEMENT_SET_NO":999,"REV_AT_EPOCH":487,"BSTAR":0.0010125244,"MEAN_MOTION_DOT":0.00063974,"MEAN_MOTION_DDOT":0},{"OBJECT_NAME":"LEOPARD","OBJECT_ID":"1998-067YD","EPOCH":"2026-03-10T05:46:10.020000","MEAN_MOTION":15.52057189,"ECCENTRICITY":0.00078502,"INCLINATION":51.632,"RA_OF_ASC_NODE":69.0869,"ARG_OF_PERICENTER":156.0408,"MEAN_ANOMALY":204.0948,"EPHEMERIS_TYPE":0,"CLASSIFICATION_TYPE":"U","NORAD_CAT_ID":67687,"ELEMENT_SET_NO":999,"REV_AT_EPOCH":479,"BSTAR":0.00077893275,"MEAN_MOTION_DOT":0.00047709,"MEAN_MOTION_DDOT":0},{"OBJECT_NAME":"ISS OBJECT YE","OBJECT_ID":"1998-067YE","EPOCH":"2026-03-10T05:38:33.125568","MEAN_MOTION":15.52539979,"ECCENTRICITY":0.00078862,"INCLINATION":51.6311,"RA_OF_ASC_NODE":69.0519,"ARG_OF_PERICENTER":152.6899,"MEAN_ANOMALY":207.4507,"EPHEMERIS_TYPE":0,"CLASSIFICATION_TYPE":"U","NORAD_CAT_ID":67688,"ELEMENT_SET_NO":999,"REV_AT_EPOCH":479,"BSTAR":0.00094629487,"MEAN_MOTION_DOT":0.00059171,"MEAN_MOTION_DDOT":0}]
